[ {"name": "STARLINK-4270", "line1": "1 52863U 22062AK  26156.23576078  .00000058  00000+0  21730-4 0  9993", "line2": "2 52863  53.1895 351.0824 0001041 104.4157 255.6950 15.08835292219140"}, {"name": "STARLINK-4267", "line1": "1 52864U 22062AL  26156.23946176 -.00005078  00000+0 -30150-3 0  9998", "line2": "2 52864  53.1904 351.0725 0001904 139.4200 220.6934 15.08801128219142"}, {"name": "STARLINK-4274", "line1": "1 52865U 22062AM  26155.69479640  .00000306  00000+0  37293-4 0  9998", "line2": "2 52865  53.1853 353.5140 0001078  72.0559 288.0550 15.08837728219063"}, {"name": "STARLINK-4272", "line1": "1 52866U 22062AN  26156.82849358 -.00040697  00000+0 -25747-2 0  9990", "line2": "2 52866  53.1867 348.4368 0001555 133.9266 226.1855 15.08536602219233"}, {"name": "STARLINK-4126", "line1": "1 52867U 22062AP  26156.81351580  .00000084  00000+0  23366-4 0  9996", "line2": "2 52867  53.1776 348.4871 0001254 110.8168 249.2958 15.08839771219236"}, {"name": "STARLINK-4261", "line1": "1 52868U 22062AQ  26156.82455756 -.00001295  00000+0 -63248-4 0  9998", "line2": "2 52868  53.1781 348.4665 0001640 126.2194 233.8950 15.08838254219239"}, {"name": "STARLINK-4266", "line1": "1 52869U 22062AR  26156.21092473  .00001747  00000+0  12789-3 0  9998", "line2": "2 52869  53.1776 341.1940 0001250 127.7145 232.3960 15.08819664219272"}, {"name": "STARLINK-4207", "line1": "1 52871U 22062AT  26156.59732494 -.00000526  00000+0 -14952-4 0  9997", "line2": "2 52871  53.1772 339.4627 0001401  29.3609 330.7461 15.08830743219330"}, {"name": "STARLINK-4213", "line1": "1 52872U 22062AU  26156.33336806  .00040913  00000+0  25758-2 0  9993", "line2": "2 52872  53.1730 340.6143 0001134  94.5442 245.8642 15.08811304  5819"}, {"name": "STARLINK-4211", "line1": "1 52873U 22062AV  26155.72883618  .00001587  00000+0  11776-3 0  9994", "line2": "2 52873  53.1832 343.3665 0001774 142.5678 217.5437 15.08840889219205"}, {"name": "STARLINK-4193", "line1": "1 52875U 22062AX  26155.72517447 -.00002903  00000+0 -16444-3 0  9992", "line2": "2 52875  53.1892 343.3777 0002255  58.0402 302.0809 15.08819237219204"}, {"name": "STARLINK-4200", "line1": "1 52876U 22062AY  26155.73252821  .00001740  00000+0  12747-3 0  9994", "line2": "2 52876  53.1887 343.3433 0005273  20.0591 340.0607 15.08843658219201"}, {"name": "STARLINK-4214", "line1": "1 52877U 22062AZ  26156.82543028  .00006195  00000+0  40627-3 0  9995", "line2": "2 52877  53.1778 338.4341 0001560 133.4905 226.6217 15.08904376219376"}, {"name": "STARLINK-4171", "line1": "1 52878U 22062BA  26156.91379377  .00000148  00000+0  27396-4 0  9991", "line2": "2 52878  53.1741 338.0160 0002198 138.9967 221.1191 15.08839324219380"}, {"name": "STARLINK-4139", "line1": "1 52879U 22062BB  26156.81446356 -.00010834  00000+0 -66360-3 0  9991", "line2": "2 52879  53.1752 338.4758 0002517 152.7540 207.3584 15.08837789219370"}, {"name": "STARLINK-4186", "line1": "1 52880U 22062BC  26156.81811517  .00003237  00000+0  22148-3 0  9991", "line2": "2 52880  53.1735 338.4638 0001224  86.4146 273.6986 15.08820674219376"}, {"name": "STARLINK-4181", "line1": "1 52882U 22062BE  26156.24030902  .00000643  00000+0  58493-4 0  9992", "line2": "2 52882  53.1883 340.6380 0001634  68.3591 291.7575 15.08839309219290"}, {"name": "STARLINK-4260", "line1": "1 52986U 22076A   26156.87699859  .00000292  00000+0  36438-4 0  9998", "line2": "2 52986  53.1748  58.2017 0001193  88.1897 271.9231 15.08835571216151"}, {"name": "STARLINK-4259", "line1": "1 52987U 22076B   26156.25415566  .00003387  00000+0  23080-3 0  9998", "line2": "2 52987  53.1752  71.0008 0001209 111.3347 248.7774 15.08839524215927"}, {"name": "STARLINK-4291", "line1": "1 52988U 22076C   26156.87332088  .00013470  00000+0  86436-3 0  9992", "line2": "2 52988  53.1757  58.2213 0001184 119.6939 240.4170 15.08772556216154"}, {"name": "STARLINK-4293", "line1": "1 52989U 22076D   26157.16671295  .00211880  00000+0  52456-2 0  9991", "line2": "2 52989  53.2168  59.6702 0001087  79.5871   5.7864 15.39125209  5835"}, {"name": "STARLINK-4286", "line1": "1 52990U 22076E   26156.04805191  .00004644  00000+0  30946-3 0  9992", "line2": "2 52990  53.1910  71.9326 0002503  97.2201 262.9076 15.08870014215896"}, {"name": "STARLINK-4285", "line1": "1 52991U 22076F   26156.04439677  .00001183  00000+0  92434-4 0  9991", "line2": "2 52991  53.1775  71.9463 0001183  92.7387 267.3741 15.08833453215890"}, {"name": "STARLINK-4269", "line1": "1 52992U 22076G   26156.04166628  .00000983  00000+0  79814-4 0  9999", "line2": "2 52992  53.1814  71.9696 0001387  76.5368 283.5778 15.08844601215895"}, {"name": "STARLINK-4256", "line1": "1 52994U 22076J   26156.86596561 -.00003315  00000+0 -19032-3 0  9993", "line2": "2 52994  53.1768  58.2577 0001425  43.3258 316.7845 15.08826324216150"}, {"name": "STARLINK-4296", "line1": "1 52995U 22076K   26156.99108181  .00002929  00000+0  20210-3 0  9993", "line2": "2 52995  53.1762  57.6873 0001499  89.3831 270.7332 15.08825924216172"}, {"name": "STARLINK-4295", "line1": "1 52996U 22076L   26157.02151311  .00003630  00000+0  24613-3 0  9993", "line2": "2 52996  53.1769  57.8265 0001740  52.0262 308.0886 15.08822379216171"}, {"name": "STARLINK-4254", "line1": "1 52998U 22076N   26156.45011388 -.00002017  00000+0 -10866-3 0  9995", "line2": "2 52998  53.1771  60.0263 0001146 102.3542 257.7578 15.08839792216096"}, {"name": "STARLINK-4217", "line1": "1 52999U 22076P   26156.44276133  .00003368  00000+0  22973-3 0  9996", "line2": "2 52999  53.1755  60.1492 0001168  95.2760 264.8365 15.08812804216098"}, {"name": "STARLINK-4194", "line1": "1 53000U 22076Q   26156.98739963  .00002542  00000+0  17781-3 0  9998", "line2": "2 53000  53.1766  57.7077 0001329  76.7560 283.3580 15.08830845216175"}]