OBJECT_NAME,OBJECT_ID,EPOCH,MEAN_MOTION,ECCENTRICITY,INCLINATION,RA_OF_ASC_NODE,ARG_OF_PERICENTER,MEAN_ANOMALY,EPHEMERIS_TYPE,CLASSIFICATION_TYPE,NORAD_CAT_ID,ELEMENT_SET_NO,REV_AT_EPOCH,BSTAR,MEAN_MOTION_DOT,MEAN_MOTION_DDOT
STARLINK-4270,2022-062AK,2026-06-05T05:39:29.731392,15.08835292,.0001041,53.1895,351.0824,104.4157,255.6950,0,U,52863,999,21914,.2173E-4,.58E-6,0
STARLINK-4267,2022-062AL,2026-06-05T05:44:49.496064,15.08801128,.0001904,53.1904,351.0725,139.4200,220.6934,0,U,52864,999,21914,-.3015E-3,-.5078E-4,0
STARLINK-4274,2022-062AM,2026-06-04T16:40:30.408960,15.08837728,.0001078,53.1853,353.5140,72.0559,288.0550,0,U,52865,999,21906,.37293E-4,.306E-5,0
STARLINK-4272,2022-062AN,2026-06-05T19:53:01.845312,15.08536602,.00015557,53.1867,348.4368,133.9266,226.1855,0,U,52866,999,21923,-.25747319E-2,-.40697E-3,0
STARLINK-4126,2022-062AP,2026-06-05T19:31:27.765120,15.08839771,.0001254,53.1776,348.4871,110.8168,249.2958,0,U,52867,999,21923,.23366E-4,.84E-6,0
STARLINK-4261,2022-062AQ,2026-06-05T19:47:21.773184,15.08838254,.000164,53.1781,348.4665,126.2194,233.8950,0,U,52868,999,21923,-.63248E-4,-.1295E-4,0
STARLINK-4266,2022-062AR,2026-06-05T05:03:43.896672,15.08819664,.000125,53.1776,341.1940,127.7145,232.3960,0,U,52869,999,21927,.12789E-3,.1747E-4,0
STARLINK-4207,2022-062AT,2026-06-05T14:20:08.874816,15.08830743,.00014012,53.1772,339.4627,29.3609,330.7461,0,U,52871,999,21933,-.14951668E-4,-.526E-5,0
STARLINK-4213,2022-062AU,2026-06-05T08:00:03.000384,15.08811304,.00011349,53.1730,340.6143,94.5442,245.8642,0,U,52872,999,581,.25758343E-2,.40913E-3,0
STARLINK-4211,2022-062AV,2026-06-04T17:29:31.445952,15.08840889,.0001774,53.1832,343.3665,142.5678,217.5437,0,U,52873,999,21920,.11776E-3,.1587E-4,0
STARLINK-4193,2022-062AX,2026-06-04T17:24:15.074208,15.08819237,.0002255,53.1892,343.3777,58.0402,302.0809,0,U,52875,999,21920,-.16444E-3,-.2903E-4,0
STARLINK-4200,2022-062AY,2026-06-04T17:34:50.437344,15.08843658,.0005273,53.1887,343.3433,20.0591,340.0607,0,U,52876,999,21920,.12747E-3,.174E-4,0
STARLINK-4214,2022-062AZ,2026-06-05T19:48:37.176192,15.08904376,.000156,53.1778,338.4341,133.4905,226.6217,0,U,52877,999,21937,.40627E-3,.6195E-4,0
STARLINK-4171,2022-062BA,2026-06-05T21:55:51.781728,15.08839324,.0002198,53.1741,338.0160,138.9967,221.1191,0,U,52878,999,21938,.27396E-4,.148E-5,0
STARLINK-4139,2022-062BB,2026-06-05T19:32:49.651584,15.08837789,.0002517,53.1752,338.4758,152.7540,207.3584,0,U,52879,999,21937,-.6636E-3,-.10834E-3,0
STARLINK-4186,2022-062BC,2026-06-05T19:38:05.150688,15.08820674,.00012246,53.1735,338.4638,86.4146,273.6986,0,U,52880,999,21937,.22148103E-3,.3237E-4,0
STARLINK-4181,2022-062BE,2026-06-05T05:46:02.699328,15.08839309,.0001634,53.1883,340.6380,68.3591,291.7575,0,U,52882,999,21929,.58493E-4,.643E-5,0
STARLINK-4260,2022-076A,2026-06-05T21:02:52.678176,15.08835571,.0001193,53.1748,58.2017,88.1897,271.9231,0,U,52986,999,21615,.36438E-4,.292E-5,0
STARLINK-4259,2022-076B,2026-06-05T06:05:59.049024,15.08839524,.0001209,53.1752,71.0008,111.3347,248.7774,0,U,52987,999,21592,.2308E-3,.3387E-4,0
STARLINK-4291,2022-076C,2026-06-05T20:57:34.924032,15.08772556,.0001184,53.1757,58.2213,119.6939,240.4170,0,U,52988,999,21615,.86436E-3,.1347E-3,0
STARLINK-4293,2022-076D,2026-06-06T04:00:03.998880,15.39125209,.0001087,53.2168,59.6702,79.5871,5.7864,0,U,52989,999,583,.52456E-2,.21188E-2,0
STARLINK-4286,2022-076E,2026-06-05T01:09:11.685024,15.08870014,.00025034,53.1910,71.9326,97.2201,262.9076,0,U,52990,999,21589,.30946292E-3,.4644E-4,0
STARLINK-4285,2022-076F,2026-06-05T01:03:55.880928,15.08833453,.00011839,53.1775,71.9463,92.7387,267.3741,0,U,52991,999,21589,.92434185E-4,.1183E-4,0
STARLINK-4269,2022-076G,2026-06-05T00:59:59.966592,15.08844601,.00013874,53.1814,71.9696,76.5368,283.5778,0,U,52992,999,21589,.79813612E-4,.983E-5,0
STARLINK-4256,2022-076J,2026-06-05T20:46:59.428704,15.08826324,.0001425,53.1768,58.2577,43.3258,316.7845,0,U,52994,999,21615,-.19032E-3,-.3315E-4,0
STARLINK-4296,2022-076K,2026-06-05T23:47:09.468384,15.08825924,.0001499,53.1762,57.6873,89.3831,270.7332,0,U,52995,999,21617,.2021E-3,.2929E-4,0
STARLINK-4295,2022-076L,2026-06-06T00:30:58.732704,15.08822379,.000174,53.1769,57.8265,52.0262,308.0886,0,U,52996,999,21617,.24613E-3,.363E-4,0
STARLINK-4254,2022-076N,2026-06-05T10:48:09.839232,15.08839792,.00011463,53.1771,60.0263,102.3542,257.7578,0,U,52998,999,21609,-.10865819E-3,-.2017E-4,0
STARLINK-4217,2022-076P,2026-06-05T10:37:34.578912,15.08812804,.00011682,53.1755,60.1492,95.2760,264.8365,0,U,52999,999,21609,.22972935E-3,.3368E-4,0
STARLINK-4194,2022-076Q,2026-06-05T23:41:51.328032,15.08830845,.0001329,53.1766,57.7077,76.7560,283.3580,0,U,53000,999,21617,.17781E-3,.2542E-4,0
